[{"OBJECT_NAME":"PHISAT 2","OBJECT_ID":"2024-149C","EPOCH":"2026-03-09T18:55:12.732384","MEAN_MOTION":15.29548632,"ECCENTRICITY":0.00011753,"INCLINATION":97.3806,"RA_OF_ASC_NODE":148.6498,"ARG_OF_PERICENTER":168.623,"MEAN_ANOMALY":191.5037,"EPHEMERIS_TYPE":0,"CLASSIFICATION_TYPE":"U","NORAD_CAT_ID":60470,"ELEMENT_SET_NO":999,"REV_AT_EPOCH":8679,"BSTAR":0.00031420974,"MEAN_MOTION_DOT":8.925e-5,"MEAN_MOTION_DDOT":0},{"OBJECT_NAME":"STARLINK-33573","OBJECT_ID":"2025-015W","EPOCH":"2026-03-09T22:38:15.216288","MEAN_MOTION":15.30218501,"ECCENTRICITY":0.00027756,"INCLINATION":53.1602,"RA_OF_ASC_NODE":321.0146,"ARG_OF_PERICENTER":168.4626,"MEAN_ANOMALY":191.6439,"EPHEMERIS_TYPE":0,"CLASSIFICATION_TYPE":"U","NORAD_CAT_ID":62778,"ELEMENT_SET_NO":999,"REV_AT_EPOCH":6452,"BSTAR":0.00095713124,"MEAN_MOTION_DOT":0.00028113,"MEAN_MOTION_DDOT":0}]
